OKEAN-0
1 25860U 99039A   10195.50827415  .00000027  00000-0  11544-4 0 00482
2 25860 097.8336 167.2798 0001496 047.5029 312.6303 14.73648758590922
NOAA-16
1 26536U 00055A   10195.85090302 -.00000224  00000-0 -95600-4 0 09247
2 26536 099.1697 213.9706 0009612 259.4950 100.5131 14.12566359505738
NOAA-17
1 27453U 02032A   10195.81772900  .00000184  00000-0  97776-4 0 09227
2 27453 098.4293 245.1476 0012662 059.6033 300.6396 14.24173650418632
NOAA-18
1 28654U 05018A   10195.87748392 -.00000144  00000-0 -54601-4 0 04078
2 28654 098.9506 142.0637 0014194 339.6895 020.3678 14.11370729265340
NOAA-19
1 33591U 09005A   10195.87153695 -.00000042  00000-0  47670-6 0 06045
2 33591 098.7887 137.4057 0013487 207.9398 152.1023 14.11067319073814
HUBBLE
1 20580U 90037B   10196.04063386  .00000342  00000-0  13348-4 0  6035
2 20580 028.4692 058.0248 0003494 140.7115 219.3727 15.00997412908943
ISS
1 25544U 98067A   10197.00956019  .00011172  00000-0  86359-4 0  5205
2 25544 051.6470 083.0369 0010240 083.4786 121.0410 15.72435387668001
CO-58
1 28895U 05043F   10195.67099861  .00000239  00000-0  59276-4 0 06316
2 28895 098.0120 079.2340 0017638 195.5242 164.5406 14.59910019250992
FALCON
1 30776U 07006E   10195.57015822  .00000318  00000-0  25791-4 0  8700
2 30776 035.4338 238.0411 0001050 016.2630 343.8120 15.03712909184184
MAST
1 31126U 07012K   10196.58241230  .00000066  00000-0  24990-4 0  9131
2 31126 097.9355 237.1246 0095146 137.3247 223.5410 14.53601830172187
CAPE1
1 31130U 07012P   10196.79931752 -.00000027  00000-0  42484-5 0  9344
2 31130 097.9357 234.6823 0103658 144.7714 216.0342 14.52197759171815
COMPASS
1 32787U 08021E   10196.73058185 -.00000057  00000-0 -49339-6 0  7246
2 32787 097.8935 261.0940 0015492 188.6737 171.4225 14.81906531119723
AAUSAT2
1 32788U 08021F   10195.17801300 -.00000000  00000-0  66630-5 0  7169
2 32788 097.8929 259.6953 0014652 194.4242 165.6503 14.82050835119505
DO-64
1 32789U 08021G   10195.72426691  .00000145  00000-0  24871-4 0  7346
2 32789 097.9003 260.7402 0015327 190.7514 169.3370 14.82206247119584
CO-66
1 32791U 08021J   10196.68917615  .00000512  00000-0  71606-4 0  7173
2 32791 097.8936 261.0659 0015632 187.4304 172.6691 14.81689840119674
RS-30
1 32953U 08025A   10196.54206965  .00000010  00000-0  00000 0 0  8697
2 32953 082.5000 012.0420 0019676 042.6781 317.5825 12.43006428 97260
TACSAT-3
1 35001U 09028A   10195.96097267  .00003281  00000-0  80087-4 0 03366
2 35001 040.4557 047.2480 0021169 217.1810 142.7540 15.42006528064927
