Satellite: OKEAN-0
Catalog number: 25860
Epoch time:      10195.50827415
Element set:    0048
Inclination:      097.8336 deg
RA of node:       167.2798 deg
Eccentricity:    0.0001496
Arg of perigee:   047.5029 deg
Mean anomaly:     312.6303 deg
Mean motion:   14.73648758 rev/day
Decay rate:        2.7e-07 rev/day^2
Epoch rev:           59092
Checksum:              320

Satellite: NOAA-16
Catalog number: 26536
Epoch time:      10195.85090302
Element set:    0924
Inclination:      099.1697 deg
RA of node:       213.9706 deg
Eccentricity:    0.0009612
Arg of perigee:   259.4950 deg
Mean anomaly:     100.5131 deg
Mean motion:   14.12566359 rev/day
Decay rate:      -2.24e-06 rev/day^2
Epoch rev:           50573
Checksum:              300

Satellite: NOAA-17
Catalog number: 27453
Epoch time:      10195.81772900
Element set:    0922
Inclination:      098.4293 deg
RA of node:       245.1476 deg
Eccentricity:    0.0012662
Arg of perigee:   059.6033 deg
Mean anomaly:     300.6396 deg
Mean motion:   14.24173650 rev/day
Decay rate:       1.84e-06 rev/day^2
Epoch rev:           41863
Checksum:              304

Satellite: NOAA-18
Catalog number: 28654
Epoch time:      10195.87748392
Element set:    0407
Inclination:      098.9506 deg
RA of node:       142.0637 deg
Eccentricity:    0.0014194
Arg of perigee:   339.6895 deg
Mean anomaly:     020.3678 deg
Mean motion:   14.11370729 rev/day
Decay rate:      -1.44e-06 rev/day^2
Epoch rev:           26534
Checksum:              332

Satellite: NOAA-19
Catalog number: 33591
Epoch time:      10195.87153695
Element set:    0604
Inclination:      098.7887 deg
RA of node:       137.4057 deg
Eccentricity:    0.0013487
Arg of perigee:   207.9398 deg
Mean anomaly:     152.1023 deg
Mean motion:   14.11067319 rev/day
Decay rate:       -4.2e-07 rev/day^2
Epoch rev:           07381
Checksum:              320

/EX
SB KEPS @ AMSAT  $ORB10196.M
Orbital Elements  10196.MISC

HR AMSAT ORBITAL ELEMENTS FOR MANNED AND MISCELLANEOUS SATELLITES
FROM WA5QGD FORT WORTH,TX July 15, 2010
Send Subscribe/unsubscribe to KEPS at http://www.amsat.org/mailman/listinfo/keps
BID: ORB10196.M
TO ALL RADIO AMATEURS BT

Satellite: HUBBLE
Catalog number: 20580
Epoch time:      10196.04063386
Element set:     603
Inclination:      028.4692 deg
RA of node:       058.0248 deg
Eccentricity:    0.0003494
Arg of perigee:   140.7115 deg
Mean anomaly:     219.3727 deg
Mean motion:   15.00997412 rev/day
Decay rate:       3.42e-06 rev/day^2
Epoch rev:           90894
Checksum:              285

Satellite: ISS
Catalog number: 25544
Epoch time:      10197.00956019
Element set:     520
Inclination:      051.6470 deg
RA of node:       083.0369 deg
Eccentricity:    0.0010240
Arg of perigee:   083.4786 deg
Mean anomaly:     121.0410 deg
Mean motion:   15.72435387 rev/day
Decay rate:     1.1172e-04 rev/day^2
Epoch rev:           66800
Checksum:              263

Satellite: CO-58
Catalog number: 28895
Epoch time:      10195.67099861
Element set:    0631
Inclination:      098.0120 deg
RA of node:       079.2340 deg
Eccentricity:    0.0017638
Arg of perigee:   195.5242 deg
Mean anomaly:     164.5406 deg
Mean motion:   14.59910019 rev/day
Decay rate:       2.39e-06 rev/day^2
Epoch rev:           25099
Checksum:              329

Satellite: FALCON
Catalog number: 30776
Epoch time:      10195.57015822
Element set:     870
Inclination:      035.4338 deg
RA of node:       238.0411 deg
Eccentricity:    0.0001050
Arg of perigee:   016.2630 deg
Mean anomaly:     343.8120 deg
Mean motion:   15.03712909 rev/day
Decay rate:       3.18e-06 rev/day^2
Epoch rev:           18418
Checksum:              254

Satellite: MAST
Catalog number: 31126
Epoch time:      10196.58241230
Element set:     913
Inclination:      097.9355 deg
RA of node:       237.1246 deg
Eccentricity:    0.0095146
Arg of perigee:   137.3247 deg
Mean anomaly:     223.5410 deg
Mean motion:   14.53601830 rev/day
Decay rate:        6.6e-07 rev/day^2
Epoch rev:           17218
Checksum:              272

Satellite: CAPE1
Catalog number: 31130
Epoch time:      10196.79931752
Element set:     934
Inclination:      097.9357 deg
RA of node:       234.6823 deg
Eccentricity:    0.0103658
Arg of perigee:   144.7714 deg
Mean anomaly:     216.0342 deg
Mean motion:   14.52197759 rev/day
Decay rate:       -2.7e-07 rev/day^2
Epoch rev:           17181
Checksum:              310

Satellite: COMPASS
Catalog number: 32787
Epoch time:      10196.73058185
Element set:     724
Inclination:      097.8935 deg
RA of node:       261.0940 deg
Eccentricity:    0.0015492
Arg of perigee:   188.6737 deg
Mean anomaly:     171.4225 deg
Mean motion:   14.81906531 rev/day
Decay rate:       -5.7e-07 rev/day^2
Epoch rev:           11972
Checksum:              321

Satellite: AAUSAT2
Catalog number: 32788
Epoch time:      10195.17801300
Element set:     716
Inclination:      097.8929 deg
RA of node:       259.6953 deg
Eccentricity:    0.0014652
Arg of perigee:   194.4242 deg
Mean anomaly:     165.6503 deg
Mean motion:   14.82050835 rev/day
Decay rate:     -.00000000 rev/day^2
Epoch rev:           11950
Checksum:              288

Satellite: DO-64
Catalog number: 32789
Epoch time:      10195.72426691
Element set:     734
Inclination:      097.9003 deg
RA of node:       260.7402 deg
Eccentricity:    0.0015327
Arg of perigee:   190.7514 deg
Mean anomaly:     169.3370 deg
Mean motion:   14.82206247 rev/day
Decay rate:       1.45e-06 rev/day^2
Epoch rev:           11958
Checksum:              309

Satellite: CO-66
Catalog number: 32791
Epoch time:      10196.68917615
Element set:     717
Inclination:      097.8936 deg
RA of node:       261.0659 deg
Eccentricity:    0.0015632
Arg of perigee:   187.4304 deg
Mean anomaly:     172.6691 deg
Mean motion:   14.81689840 rev/day
Decay rate:       5.12e-06 rev/day^2
Epoch rev:           11967
Checksum:              347

Satellite: RS-30
Catalog number: 32953
Epoch time:      10196.54206965
Element set:     869
Inclination:      082.5000 deg
RA of node:       012.0420 deg
Eccentricity:    0.0019676
Arg of perigee:   042.6781 deg
Mean anomaly:     317.5825 deg
Mean motion:   12.43006428 rev/day
Decay rate:        1.0e-07 rev/day^2
Epoch rev:            9726
Checksum:              280

Satellite: TACSAT-3
Catalog number: 35001
Epoch time:      10195.96097267
Element set:    0336
Inclination:      040.4557 deg
RA of node:       047.2480 deg
Eccentricity:    0.0021169
Arg of perigee:   217.1810 deg
Mean anomaly:     142.7540 deg
Mean motion:   15.42006528 rev/day
Decay rate:      3.281e-05 rev/day^2
Epoch rev:           06492
Checksum:              275

